{
    "links": {
        "self": "http://www.neowsapp.com/rest/v1/neo/3712470?api_key=iIulBulltgU6a56xZRHN4H3l9WmuAYTsLGpBGhQ2"
    },
    "id": "3712470",
    "neo_reference_id": "3712470",
    "name": "(2015 DH198)",
    "designation": "2015 DH198",
    "nasa_jpl_url": "http://ssd.jpl.nasa.gov/sbdb.cgi?sstr=3712470",
    "absolute_magnitude_h": 25.3,
    "estimated_diameter": {
        "kilometers": {
            "estimated_diameter_min": 0.0231502122,
            "estimated_diameter_max": 0.0517654482
        },
        "meters": {
            "estimated_diameter_min": 23.150212221,
            "estimated_diameter_max": 51.7654482198
        },
        "miles": {
            "estimated_diameter_min": 0.0143848705,
            "estimated_diameter_max": 0.0321655483
        },
        "feet": {
            "estimated_diameter_min": 75.9521422633,
            "estimated_diameter_max": 169.8341531374
        }
    },
    "is_potentially_hazardous_asteroid": false,
    "close_approach_data": [
        {
            "close_approach_date": "2004-03-07",
            "close_approach_date_full": "2004-Mar-07 17:05",
            "epoch_date_close_approach": 1078679100000,
            "relative_velocity": {
                "kilometers_per_second": "12.3401861235",
                "kilometers_per_hour": "44424.6700444801",
                "miles_per_hour": "27603.7623395827"
            },
            "miss_distance": {
                "astronomical": "0.3684020098",
                "lunar": "143.3083818122",
                "kilometers": "55112155.969799126",
                "miles": "34245105.7529788988"
            },
            "orbiting_body": "Earth"
        },
        {
            "close_approach_date": "2015-02-16",
            "close_approach_date_full": "2015-Feb-16 02:57",
            "epoch_date_close_approach": 1424055420000,
            "relative_velocity": {
                "kilometers_per_second": "4.1911465265",
                "kilometers_per_hour": "15088.1274952327",
                "miles_per_hour": "9375.1756650239"
            },
            "miss_distance": {
                "astronomical": "0.1135960362",
                "lunar": "44.1888580818",
                "kilometers": "16993725.055962894",
                "miles": "10559411.1033761772"
            },
            "orbiting_body": "Earth"
        },
        {
            "close_approach_date": "2026-01-22",
            "close_approach_date_full": "2026-Jan-22 07:01",
            "epoch_date_close_approach": 1769065260000,
            "relative_velocity": {
                "kilometers_per_second": "13.6253418581",
                "kilometers_per_hour": "49051.2306893234",
                "miles_per_hour": "30478.5272024854"
            },
            "miss_distance": {
                "astronomical": "0.4729626595",
                "lunar": "183.9824745455",
                "kilometers": "70754206.450735265",
                "miles": "43964625.221726057"
            },
            "orbiting_body": "Earth"
        },
        {
            "close_approach_date": "2155-02-01",
            "close_approach_date_full": "2155-Feb-01 18:35",
            "epoch_date_close_approach": 5840793300000,
            "relative_velocity": {
                "kilometers_per_second": "10.4675643055",
                "kilometers_per_hour": "37683.2314999544",
                "miles_per_hour": "23414.8945950689"
            },
            "miss_distance": {
                "astronomical": "0.3733392836",
                "lunar": "145.2289813204",
                "kilometers": "55850761.613885932",
                "miles": "34704054.0185005816"
            },
            "orbiting_body": "Earth"
        },
        {
            "close_approach_date": "2168-03-16",
            "close_approach_date_full": "2168-Mar-16 00:58",
            "epoch_date_close_approach": 6254758680000,
            "relative_velocity": {
                "kilometers_per_second": "15.3559688005",
                "kilometers_per_hour": "55281.4876818745",
                "miles_per_hour": "34349.7666098848"
            },
            "miss_distance": {
                "astronomical": "0.4737069207",
                "lunar": "184.2719921523",
                "kilometers": "70865546.340978909",
                "miles": "44033808.6214465842"
            },
            "orbiting_body": "Earth"
        }
    ],
    "orbital_data": {
        "orbit_id": "10",
        "orbit_determination_date": "2017-04-06 08:35:24",
        "first_observation_date": "2015-02-23",
        "last_observation_date": "2015-03-28",
        "data_arc_in_days": 33,
        "observations_used": 25,
        "orbit_uncertainty": "7",
        "minimum_orbit_intersection": ".10686",
        "jupiter_tisserand_invariant": "4.146",
        "epoch_osculation": "2459000.5",
        "eccentricity": ".3561719207311275",
        "semi_major_axis": "1.685228368333003",
        "inclination": "5.655257936807632",
        "ascending_node_longitude": "169.7622080483166",
        "orbital_period": "799.0732065011816",
        "perihelion_distance": "1.084997343513253",
        "perihelion_argument": "329.7048877553042",
        "aphelion_distance": "2.285459393152753",
        "perihelion_time": "2458658.161176525520",
        "mean_anomaly": "154.2311460929089",
        "mean_motion": ".4505219259901034",
        "equinox": "J2000",
        "orbit_class": {
            "orbit_class_type": "AMO",
            "orbit_class_description": "Near-Earth asteroid orbits similar to that of 1221 Amor",
            "orbit_class_range": "1.017 AU < q (perihelion) < 1.3 AU"
        }
    },
    "is_sentry_object": false
}